[{"OBJECT_NAME":"STARLINK-35529","OBJECT_ID":"2025-245AB","EPOCH":"2026-03-09T22:14:37.857120","MEAN_MOTION":15.30209425,"ECCENTRICITY":0.00010224,"INCLINATION":53.158,"RA_OF_ASC_NODE":282.7297,"ARG_OF_PERICENTER":81.6798,"MEAN_ANOMALY":278.4319,"EPHEMERIS_TYPE":0,"CLASSIFICATION_TYPE":"U","NORAD_CAT_ID":66259,"ELEMENT_SET_NO":999,"REV_AT_EPOCH":2129,"BSTAR":0.00093163635,"MEAN_MOTION_DOT":0.00027343,"MEAN_MOTION_DDOT":0},{"OBJECT_NAME":"CZ-6A R\/B","OBJECT_ID":"2023-168B","EPOCH":"2026-03-09T21:13:08.722272","MEAN_MOTION":15.16100791,"ECCENTRICITY":0.00607667,"INCLINATION":97.7542,"RA_OF_ASC_NODE":104.7688,"ARG_OF_PERICENTER":339.2379,"MEAN_ANOMALY":20.6386,"EPHEMERIS_TYPE":0,"CLASSIFICATION_TYPE":"U","NORAD_CAT_ID":58200,"ELEMENT_SET_NO":999,"REV_AT_EPOCH":12979,"BSTAR":0.00029693841,"MEAN_MOTION_DOT":5.919e-5,"MEAN_MOTION_DDOT":0}]
